{"type": "FeatureCollection", "features": [ {"type": "Feature", "properties": {"norad_id": 37132, "name": "COSMOS 2251 DEB", "group": "cosmos-2251-debris", "lat": -46.40566017972471, "lon": 91.56433868054236, "alt_km": 670.995417001056, "timestamp": "2025-12-02T13:52:17.658897+00:00", "meta": {"OBJECT_NAME": "COSMOS 2251 DEB", "OBJECT_ID": "1993-036BHE", "EPOCH": "2025-11-29T01:57:55.161216", "MEAN_MOTION": 14.77491911, "ECCENTRICITY": 0.00393056, "INCLINATION": 74.0019, "RA_OF_ASC_NODE": 260.8973, "ARG_OF_PERICENTER": 60.0895, "MEAN_ANOMALY": 300.4174, "EPHEMERIS_TYPE": 0, "CLASSIFICATION_TYPE": "U", "NORAD_CAT_ID": 37132, "ELEMENT_SET_NO": 999, "REV_AT_EPOCH": 62214, "BSTAR": 0.0012599445, "MEAN_MOTION_DOT": 9.078e-05, "MEAN_MOTION_DDOT": 0}, "tle": {"line1": "1 37132U 93036BHE 25333.08188844  .00009078  00000+0  12599-2 0  9995", "line2": "2 37132  74.0019 260.8973 0039305  60.0895 300.4174 14.77491911622140"}}, "geometry": {"type": "Point", "coordinates": [91.56433868054236, -46.40566017972471]}}, {"type": "Feature", "properties": {"norad_id": 37270, "name": "COSMOS 2251 DEB", "group": "cosmos-2251-debris", "lat": 16.9417194935229, "lon": -2.4955323294723195, "alt_km": 747.5926840057527, "timestamp": "2025-12-02T13:52:17.658907+00:00", "meta": {"OBJECT_NAME": "COSMOS 2251 DEB", "OBJECT_ID": "1993-036BHJ", "EPOCH": "2025-12-01T02:28:33.040416", "MEAN_MOTION": 13.59625006, "ECCENTRICITY": 0.0397803, "INCLINATION": 73.9339, "RA_OF_ASC_NODE": 354.8735, "ARG_OF_PERICENTER": 8.9198, "MEAN_ANOMALY": 351.871, "EPHEMERIS_TYPE": 0, "CLASSIFICATION_TYPE": "U", "NORAD_CAT_ID": 37270, "ELEMENT_SET_NO": 999, "REV_AT_EPOCH": 76911, "BSTAR": 0.0032507777, "MEAN_MOTION_DOT": 4.044e-05, "MEAN_MOTION_DDOT": 0}, "tle": {"line1": "1 37270U 93036BHJ 25335.10316019  .00004044  00000+0  32508-2 0  9990", "line2": "2 37270  73.9339 354.8735 0397803   8.9198 351.8710 13.59625006769111"}}, "geometry": {"type": "Point", "coordinates": [-2.4955323294723195, 16.9417194935229]}}, {"type": "Feature", "properties": {"norad_id": 37278, "name": "COSMOS 2251 DEB", "group": "cosmos-2251-debris", "lat": 2.5283734485807083, "lon": -173.10189774725765, "alt_km": 634.2394888176241, "timestamp": "2025-12-02T13:52:17.658918+00:00", "meta": {"OBJECT_NAME": "COSMOS 2251 DEB", "OBJECT_ID": "1993-036BHS", "EPOCH": "2025-12-01T18:57:57.153312", "MEAN_MOTION": 14.1499711, "ECCENTRICITY": 0.03003074, "INCLINATION": 73.7866, "RA_OF_ASC_NODE": 9.0548, "ARG_OF_PERICENTER": 193.3578, "MEAN_ANOMALY": 293.5627, "EPHEMERIS_TYPE": 0, "CLASSIFICATION_TYPE": "U", "NORAD_CAT_ID": 37278, "ELEMENT_SET_NO": 999, "REV_AT_EPOCH": 63674, "BSTAR": 0.0011131587, "MEAN_MOTION_DOT": 3.306e-05, "MEAN_MOTION_DDOT": 0}, "tle": {"line1": "1 37278U 93036BHS 25335.79024483  .00003306  00000+0  11132-2 0  9994", "line2": "2 37278  73.7866   9.0548 0300307 193.3578 293.5627 14.14997110636748"}}, "geometry": {"type": "Point", "coordinates": [-173.10189774725765, 2.5283734485807083]}}, {"type": "Feature", "properties": {"norad_id": 37280, "name": "COSMOS 2251 DEB", "group": "cosmos-2251-debris", "lat": -24.379843627960295, "lon": 67.7762530221177, "alt_km": 892.1447177541395, "timestamp": "2025-12-02T13:52:17.658928+00:00", "meta": {"OBJECT_NAME": "COSMOS 2251 DEB", "OBJECT_ID": "1993-036BHU", "EPOCH": "2025-12-02T00:27:32.804352", "MEAN_MOTION": 14.19175148, "ECCENTRICITY": 0.01319076, "INCLINATION": 74.0306, "RA_OF_ASC_NODE": 76.2311, "ARG_OF_PERICENTER": 206.963, "MEAN_ANOMALY": 152.4621, "EPHEMERIS_TYPE": 0, "CLASSIFICATION_TYPE": "U", "NORAD_CAT_ID": 37280, "ELEMENT_SET_NO": 999, "REV_AT_EPOCH": 57171, "BSTAR": 0.0022688373, "MEAN_MOTION_DOT": 5.159e-05, "MEAN_MOTION_DDOT": 0}, "tle": {"line1": "1 37280U 93036BHU 25336.01912968  .00005159  00000+0  22688-2 0  9993", "line2": "2 37280  74.0306  76.2311 0131907 206.9630 152.4621 14.19175148571712"}}, "geometry": {"type": "Point", "coordinates": [67.7762530221177, -24.379843627960295]}}, {"type": "Feature", "properties": {"norad_id": 37284, "name": "COSMOS 2251 DEB", "group": "cosmos-2251-debris", "lat": -30.98842446632956, "lon": 4.629908832360461, "alt_km": 905.9447959439358, "timestamp": "2025-12-02T13:52:17.658938+00:00", "meta": {"OBJECT_NAME": "COSMOS 2251 DEB", "OBJECT_ID": "1993-036BHY", "EPOCH": "2025-12-01T19:55:42.843072", "MEAN_MOTION": 14.12627021, "ECCENTRICITY": 0.01605389, "INCLINATION": 74.0146, "RA_OF_ASC_NODE": 176.0394, "ARG_OF_PERICENTER": 330.0872, "MEAN_ANOMALY": 43.3273, "EPHEMERIS_TYPE": 0, "CLASSIFICATION_TYPE": "U", "NORAD_CAT_ID": 37284, "ELEMENT_SET_NO": 999, "REV_AT_EPOCH": 59021, "BSTAR": 0.0011943881, "MEAN_MOTION_DOT": 2.474e-05, "MEAN_MOTION_DDOT": 0}, "tle": {"line1": "1 37284U 93036BHY 25335.83035698  .00002474  00000+0  11944-2 0  9992", "line2": "2 37284  74.0146 176.0394 0160538 330.0872  43.3273 14.12627021590219"}}, "geometry": {"type": "Point", "coordinates": [4.629908832360461, -30.98842446632956]}}, {"type": "Feature", "properties": {"norad_id": 37295, "name": "COSMOS 2251 DEB", "group": "cosmos-2251-debris", "lat": 46.377265180469784, "lon": 103.6997671694486, "alt_km": 641.6297655879962, "timestamp": "2025-12-02T13:52:17.658948+00:00", "meta": {"OBJECT_NAME": "COSMOS 2251 DEB", "OBJECT_ID": "1993-036BJK", "EPOCH": "2025-12-01T04:30:08.731584", "MEAN_MOTION": 14.65123594, "ECCENTRICITY": 0.00437469, "INCLINATION": 74.0068, "RA_OF_ASC_NODE": 303.8923, "ARG_OF_PERICENTER": 126.7963, "MEAN_ANOMALY": 233.7233, "EPHEMERIS_TYPE": 0, "CLASSIFICATION_TYPE": "U", "NORAD_CAT_ID": 37295, "ELEMENT_SET_NO": 999, "REV_AT_EPOCH": 82135, "BSTAR": 0.00057778641, "MEAN_MOTION_DOT": 3.118e-05, "MEAN_MOTION_DDOT": 0}, "tle": {"line1": "1 37295U 93036BJK 25335.18760106  .00003118  00000+0  57779-3 0  9994", "line2": "2 37295  74.0068 303.8923 0043746 126.7963 233.7233 14.65123594821351"}}, "geometry": {"type": "Point", "coordinates": [103.6997671694486, 46.377265180469784]}}, {"type": "Feature", "properties": {"norad_id": 37305, "name": "COSMOS 2251 DEB", "group": "cosmos-2251-debris", "lat": -68.44463980372537, "lon": 176.47247755607722, "alt_km": 743.6255501546466, "timestamp": "2025-12-02T13:52:17.658958+00:00", "meta": {"OBJECT_NAME": "COSMOS 2251 DEB", "OBJECT_ID": "1993-036BJV", "EPOCH": "2025-12-01T04:54:57.845088", "MEAN_MOTION": 14.36058989, "ECCENTRICITY": 0.0050534, "INCLINATION": 73.8694, "RA_OF_ASC_NODE": 311.9126, "ARG_OF_PERICENTER": 273.9871, "MEAN_ANOMALY": 85.5504, "EPHEMERIS_TYPE": 0, "CLASSIFICATION_TYPE": "U", "NORAD_CAT_ID": 37305, "ELEMENT_SET_NO": 999, "REV_AT_EPOCH": 66701, "BSTAR": 0.00088749, "MEAN_MOTION_DOT": 2.593e-05, "MEAN_MOTION_DDOT": 0}, "tle": {"line1": "1 37305U 93036BJV 25335.20483617  .00002593  00000+0  88749-3 0  9995", "line2": "2 37305  73.8694 311.9126 0050534 273.9871  85.5504 14.36058989667014"}}, "geometry": {"type": "Point", "coordinates": [176.47247755607722, -68.44463980372537]}}, {"type": "Feature", "properties": {"norad_id": 37312, "name": "COSMOS 2251 DEB", "group": "cosmos-2251-debris", "lat": -62.35088622577419, "lon": -169.98304175472407, "alt_km": 734.6715404910274, "timestamp": "2025-12-02T13:52:17.658968+00:00", "meta": {"OBJECT_NAME": "COSMOS 2251 DEB", "OBJECT_ID": "1993-036BKC", "EPOCH": "2025-12-01T23:14:14.462880", "MEAN_MOTION": 14.46068462, "ECCENTRICITY": 0.00181301, "INCLINATION": 74.0322, "RA_OF_ASC_NODE": 224.2849, "ARG_OF_PERICENTER": 328.509, "MEAN_ANOMALY": 31.4981, "EPHEMERIS_TYPE": 0, "CLASSIFICATION_TYPE": "U", "NORAD_CAT_ID": 37312, "ELEMENT_SET_NO": 999, "REV_AT_EPOCH": 86008, "BSTAR": 0.00054858733, "MEAN_MOTION_DOT": 1.934e-05, "MEAN_MOTION_DDOT": 0}, "tle": {"line1": "1 37312U 93036BKC 25335.96822295  .00001934  00000+0  54859-3 0  9998", "line2": "2 37312  74.0322 224.2849 0018130 328.5090  31.4981 14.46068462860086"}}, "geometry": {"type": "Point", "coordinates": [-169.98304175472407, -62.35088622577419]}}, {"type": "Feature", "properties": {"norad_id": 37316, "name": "COSMOS 2251 DEB", "group": "cosmos-2251-debris", "lat": 4.159719251781109, "lon": -139.635862768668, "alt_km": 578.015679112179, "timestamp": "2025-12-02T13:52:17.658978+00:00", "meta": {"OBJECT_NAME": "COSMOS 2251 DEB", "OBJECT_ID": "1993-036BKG", "EPOCH": "2025-12-01T11:22:22.057824", "MEAN_MOTION": 14.93706807, "ECCENTRICITY": 0.00296758, "INCLINATION": 74.021, "RA_OF_ASC_NODE": 43.7815, "ARG_OF_PERICENTER": 117.7256, "MEAN_ANOMALY": 242.6944, "EPHEMERIS_TYPE": 0, "CLASSIFICATION_TYPE": "U", "NORAD_CAT_ID": 37316, "ELEMENT_SET_NO": 999, "REV_AT_EPOCH": 85975, "BSTAR": 0.0030587091, "MEAN_MOTION_DOT": 0.00032769, "MEAN_MOTION_DDOT": 0}, "tle": {"line1": "1 37316U 93036BKG 25335.47386641  .00032769  00000+0  30587-2 0  9999", "line2": "2 37316  74.0210  43.7815 0029675 117.7256 242.6944 14.93706807859752"}}, "geometry": {"type": "Point", "coordinates": [-139.635862768668, 4.159719251781109]}}, {"type": "Feature", "properties": {"norad_id": 37320, "name": "COSMOS 2251 DEB", "group": "cosmos-2251-debris", "lat": 23.35251765022018, "lon": 51.02973933232082, "alt_km": 665.7136145091035, "timestamp": "2025-12-02T13:52:17.658988+00:00", "meta": {"OBJECT_NAME": "COSMOS 2251 DEB", "OBJECT_ID": "1993-036BKL", "EPOCH": "2025-12-02T00:10:39.701280", "MEAN_MOTION": 14.78545682, "ECCENTRICITY": 0.00470256, "INCLINATION": 74.0466, "RA_OF_ASC_NODE": 239.2444, "ARG_OF_PERICENTER": 328.4287, "MEAN_ANOMALY": 31.4068, "EPHEMERIS_TYPE": 0, "CLASSIFICATION_TYPE": "U", "NORAD_CAT_ID": 37320, "ELEMENT_SET_NO": 999, "REV_AT_EPOCH": 65988, "BSTAR": 0.0011433945, "MEAN_MOTION_DOT": 8.49e-05, "MEAN_MOTION_DDOT": 0}, "tle": {"line1": "1 37320U 93036BKL 25336.00740395  .00008490  00000+0  11434-2 0  9998", "line2": "2 37320  74.0466 239.2444 0047025 328.4287  31.4068 14.78545682659882"}}, "geometry": {"type": "Point", "coordinates": [51.02973933232082, 23.35251765022018]}}]}